INMARSAT 4-F2 (SOUTHPA*)
1 28899U 05044A   26074.23869792 -.00000257  00000+0  00000+0 0  9997
2 28899   4.9707  43.7891 0002787 343.8859  14.5994  1.00276680 74576
GSAT-8 (GAGAN/PRN 127)  
1 37605U 11022A   26074.22119118  .00000085  00000+0  00000+0 0  9992
2 37605   1.8865  83.0033 0006958 216.8111   7.7004  1.00270620 52278
LUCH 5A (SDCM/PRN 140)  
1 37951U 11074B   26074.24346461 -.00000045  00000+0  00000+0 0  9995
2 37951   8.5139  75.1828 0003379 262.7020  89.7018  1.00268919 52102
SES-5 (EGNOS/PRN 136)   
1 38652U 12036A   26074.28255144  .00000033  00000+0  00000+0 0  9990
2 38652   0.0644 306.6859 0001793  47.2719 285.6198  1.00271747 43518
GSAT-10 (GAGAN/PRN 128) 
1 38779U 12051B   26074.15541090 -.00000166  00000+0  00000+0 0  9999
2 38779   0.0481 255.1358 0005105 185.3805 231.1995  1.00272292 49153
LUCH 5B (SDCM/PRN 125)  
1 38977U 12061A   26074.20706444 -.00000132  00000+0  00000+0 0  9995
2 38977  10.2806  50.7953 0003186 227.4035 312.8377  1.00271883 48668
ASTRA 5B (EGNOS/PRN 123)
1 39617U 14011B   26074.13447385  .00000136  00000+0  00000+0 0  9995
2 39617   0.0952 297.1875 0003788  38.2302 269.2327  1.00269723 43724
LUCH 5V (SDCM/PRN 141)  
1 39727U 14023A   26074.01509697 -.00000266  00000+0  00000+0 0  9997
2 39727   4.8999  70.6618 0003160 298.3392 263.7293  1.00268683 43411
GSAT-15 (GAGAN/PRN 139) 
1 41028U 15065A   26074.08616394 -.00000259  00000+0  00000+0 0  9993
2 41028   0.0651 269.1503 0001568 126.8549 261.2054  1.00271405 37853
EUTELSAT 117 WEST B (W*)
1 41589U 16038B   26073.30322345 -.00000012  00000+0  00000+0 0  9997
2 41589   0.0416   6.7202 0000259 285.2785 232.0791  1.00272184 35715
SES-15 (WAAS/PRN 133)   
1 42709U 17026A   26071.61751647  .00000060  00000+0  00000+0 0  9995
2 42709   0.0388 330.9168 0000706  38.8107 253.6487  1.00270524  6465
QZS-2 (QZSS/PRN 194)    
1 42738U 17028A   26073.34350848 -.00000134  00000+0  00000+0 0  9992
2 42738  39.5754 244.5340 0744466 270.4251 281.8153  1.00259390  6679
QZS-3 (QZSS/PRN 199)    
1 42917U 17048A   26074.23549124 -.00000349  00000+0  00000+0 0  9997
2 42917   0.0562 195.7613 0002323 176.2884  12.6046  1.00270723 31315
QZS-4 (QZSS/PRN 195)    
1 42965U 17062A   26073.61503141 -.00000295  00000+0  00000+0 0  9996
2 42965  40.1666 344.6945 0747998 270.0340 279.5094  1.00278286 30852
BEIDOU-3 G1 (PRN 130)   
1 43683U 18085A   26072.31265080 -.00000279  00000+0  00000+0 0  9995
2 43683   2.8312 100.0786 0002095   8.4898 314.8220  1.00265903 27091
EUTELSAT 5 WEST B (EGN*)
1 44624U 19067A   26074.20931779 -.00000043  00000+0  00000+0 0  9996
2 44624   0.0783 324.8861 0003182  40.3280 237.9446  1.00271700 23494
BEIDOU-3 G2 (PRN 144)   
1 45344U 20017A   26074.15480422 -.00000139  00000+0  00000+0 0  9997
2 45344   2.6744  45.7550 0002741 323.6454 299.1401  1.00272327 22310
BEIDOU-3 G3 (PRN 143)   
1 45807U 20040A   26074.08954396 -.00000353  00000+0  00000+0 0  9993
2 45807   2.2145  67.1502 0004845 325.3989 282.9054  1.00270422 21125
GALAXY 30 (WAAS/PRN 135)
1 46114U 20056C   26074.25689799  .00000000  00000+0  00000+0 0  9991
2 46114   0.0272 152.7003 0002021 214.1508 133.4993  1.00270038 20356
QZS-1R (QZSS/PRN 196)   
1 49336U 21096A   26073.48417348 -.00000213  00000+0  00000+0 0  9995
2 49336  37.2643  80.9807 0748407 269.9092 130.1920  1.00287959 16061
QZS-6 (QZSS/PRN 200)    
1 62876U 25023A   26074.08555727 -.00000234  00000+0  00000+0 0  9997
2 62876   0.0202 100.9048 0002204 261.7048 291.3489  1.00274709  4014
